NORAD_CAT_ID,OBJECT_NAME,OBJECT_TYPE,EPOCH,MEAN_MOTION,ECCENTRICITY,INCLINATION,RA_OF_ASC_NODE,ARG_OF_PERICENTER,MEAN_ANOMALY,BSTAR,MEAN_MOTION_DOT,MEAN_MOTION_DDOT,TLE_LINE0,TLE_LINE1,TLE_LINE2,SEMIMAJOR_AXIS,PERIOD,APOGEE,PERIGEE,DECAYED
51889.0,STARLINK-3547,PAYLOAD,2023-08-01 16:08:54,15.08857732,0.0001177,53.2177,308.4021,96.3704,263.7422,-2.5806e-05,-6.99e-06,0.0,0 STARLINK-3547,1 51889U 22022AP  23213.67285056 -.00000699  00000-0 -25806-4 0  9990,2 51889  53.2177 308.4021 0001177  96.3704 263.7422 15.08857732 79672,6917.826,95.436,540.505,538.877,0.0
51889.0,STARLINK-3547,PAYLOAD,2023-08-02 06:27:23,15.08836694,0.0001162,53.2179,305.7227,112.764,247.3475,-3.6388e-05,-8.67e-06,0.0,0 STARLINK-3547,1 51889U 22022AP  23214.26901979 -.00000867  00000-0 -36388-4 0  9999,2 51889  53.2179 305.7227 0001162 112.7640 247.3475 15.08836694 79768,6917.89,95.438,540.559,538.952,0.0
51889.0,STARLINK-3547,PAYLOAD,2023-08-02 12:48:55,15.08845661,0.000142,53.218,304.5367,103.9991,256.1159,-4.5285e-05,-1.009e-05,0.0,0 STARLINK-3547,1 51889U 22022AP  23214.53397435 -.00001009  00000-0 -45285-4 0  9990,2 51889  53.2180 304.5367 0001420 103.9991 256.1159 15.08845661 79806,6917.863,95.437,540.71,538.746,0.0
51889.0,STARLINK-3547,PAYLOAD,2023-08-03 17:25:50,15.08853408,0.0001391,53.2176,299.1837,109.8067,250.3075,0.00011826,1.595e-05,0.0,0 STARLINK-3547,1 51889U 22022AP  23215.72628332  .00001595  00000-0  11826-3 0  9996,2 51889  53.2176 299.1837 0001391 109.8067 250.3075 15.08853408 79988,6917.839,95.437,540.667,538.742,0.0
51889.0,STARLINK-3547,PAYLOAD,2023-08-04 10:55:07,15.088269,0.0001148,53.218,295.9138,91.6434,268.4689,-1.75e-05,-5.66e-06,0.0,0 STARLINK-3547,1 51889U 22022AP  23216.45494846 -.00000566  00000-0 -17500-4 0  9993,2 51889  53.2180 295.9138 0001148  91.6434 268.4689 15.08826900 80099,6917.92,95.438,540.58,538.991,0.0
51889.0,STARLINK-3547,PAYLOAD,2023-08-04 15:41:16,15.08832576,0.0001111,53.2182,295.0217,89.31,270.8019,3.0395e-05,1.96e-06,0.0,0 STARLINK-3547,1 51889U 22022AP  23216.65366509  .00000196  00000-0  30395-4 0  9993,2 51889  53.2182 295.0217 0001111  89.3100 270.8019 15.08832576 80128,6917.903,95.438,540.537,539.0,0.0
51889.0,STARLINK-3547,PAYLOAD,2023-08-05 10:45:53,15.08850469,0.0001055,53.2166,291.4547,85.7984,274.3129,0.00016877,2.4e-05,0.0,0 STARLINK-3547,1 51889U 22022AP  23217.44853424  .00002400  00000-0  16877-3 0  9996,2 51889  53.2166 291.4547 0001055  85.7984 274.3129 15.08850469 80248,6917.848,95.437,540.443,538.984,0.0
51889.0,STARLINK-3547,PAYLOAD,2023-08-05 21:53:35,15.08844111,8.94e-05,53.2165,289.3709,108.3973,251.7116,0.0001826,2.62e-05,0.0,0 STARLINK-3547,1 51889U 22022AP  23217.91221640  .00002620  00000-0  18260-3 0  9999,2 51889  53.2165 289.3709 0000894 108.3973 251.7116 15.08844111 80313,6917.868,95.437,540.351,539.114,0.0
51889.0,STARLINK-3547,PAYLOAD,2023-08-06 10:36:41,15.0882975,9.94e-05,53.2159,286.9934,94.9475,265.1631,-0.00015017,-2.676e-05,0.0,0 STARLINK-3547,1 51889U 22022AP  23218.44214429 -.00002676  00000-0 -15017-3 0  9995,2 51889  53.2159 286.9934 0000994  94.9475 265.1631 15.08829750 80398,6917.912,95.438,540.464,539.089,0.0
51889.0,STARLINK-3547,PAYLOAD,2023-08-07 10:27:28,15.08847717,8.57e-05,53.2147,282.5318,96.2258,263.8832,0.00096326,0.00015079,0.0,0 STARLINK-3547,1 51889U 22022AP  23219.43574876  .00015079  00000-0  96326-3 0  9991,2 51889  53.2147 282.5318 0000857  96.2258 263.8832 15.08847717 80543,6917.857,95.437,540.315,539.129,0.0
51889.0,STARLINK-3547,PAYLOAD,2023-08-07 21:35:10,15.08847067,6.15e-05,53.2145,280.4508,92.1432,267.9631,0.00053949,8.31e-05,0.0,0 STARLINK-3547,1 51889U 22022AP  23219.89942775  .00008310  00000-0  53949-3 0  9992,2 51889  53.2145 280.4508 0000615  92.1432 267.9631 15.08847067 80618,6917.859,95.437,540.149,539.298,0.0
51889.0,STARLINK-3547,PAYLOAD,2023-08-08 21:25:57,15.08851329,6.27e-05,53.2146,275.9899,64.0828,296.0229,0.00065483,0.00010152,0.0,0 STARLINK-3547,1 51889U 22022AP  23220.89302494  .00010152  00000-0  65483-3 0  9995,2 51889  53.2146 275.9899 0000627  64.0828 296.0229 15.08851329 80769,6917.846,95.437,540.145,539.277,0.0
51889.0,STARLINK-3547,PAYLOAD,2023-08-09 10:09:02,15.08842306,8.87e-05,53.2154,273.6098,89.3292,270.7802,0.00012048,1.63e-05,0.0,0 STARLINK-3547,1 51889U 22022AP  23221.42294761  .00001630  00000-0  12048-3 0  9992,2 51889  53.2154 273.6098 0000887  89.3292 270.7802 15.08842306 80847,6917.873,95.437,540.352,539.125,0.0
51889.0,STARLINK-3547,PAYLOAD,2023-08-10 03:38:17,15.08837711,8.34e-05,53.2166,270.3407,90.0775,270.0313,0.00045828,7.013e-05,0.0,0 STARLINK-3547,1 51889U 22022AP  23222.15159237  .00007013  00000-0  45828-3 0  9994,2 51889  53.2166 270.3407 0000834  90.0775 270.0313 15.08837711 80951,6917.887,95.438,540.329,539.175,0.0
51889.0,STARLINK-3547,PAYLOAD,2023-08-11 09:50:36,15.08840054,9.2e-05,53.2158,264.6903,87.1942,272.9156,9.395e-05,1.208e-05,0.0,0 STARLINK-3547,1 51889U 22022AP  23223.41014799  .00001208  00000-0  93950-4 0  9997,2 51889  53.2158 264.6903 0000920  87.1942 272.9156 15.08840054 81140,6917.88,95.438,540.382,539.109,0.0
51889.0,STARLINK-3547,PAYLOAD,2023-08-12 19:13:42,15.0884582,8.62e-05,53.2163,258.444,88.194,271.9151,0.00013851,1.918e-05,0.0,0 STARLINK-3547,1 51889U 22022AP  23224.80118435  .00001918  00000-0  13851-3 0  9992,2 51889  53.2163 258.4440 0000862  88.1940 271.9151 15.08845820 81350,6917.863,95.437,540.324,539.131,0.0
51889.0,STARLINK-3547,PAYLOAD,2023-08-14 01:26:01,15.08850267,9.55e-05,53.2155,252.7942,80.8143,279.2957,0.00020204,2.93e-05,0.0,0 STARLINK-3547,1 51889U 22022AP  23226.05973737  .00002930  00000-0  20204-3 0  9990,2 51889  53.2155 252.7942 0000955  80.8143 279.2957 15.08850267 81549,6917.849,95.437,540.375,539.053,0.0
51889.0,STARLINK-3547,PAYLOAD,2023-08-14 09:22:58,15.08836094,8.78e-05,53.216,251.3068,97.7525,262.3567,9.6295e-06,-1.34e-06,0.0,0 STARLINK-3547,1 51889U 22022AP  23226.39095327 -.00000134  00000-0  96295-5 0  9997,2 51889  53.2160 251.3068 0000878  97.7525 262.3567 15.08836094 81591,6917.892,95.438,540.365,539.15,0.0
51889.0,STARLINK-3547,PAYLOAD,2023-08-15 07:38:22,15.08819608,0.0001442,53.2159,247.1439,102.9931,257.1222,0.00035472,5.359e-05,0.0,0 STARLINK-3547,1 51889U 22022AP  23227.31831635  .00005359  00000-0  35472-3 0  9991,2 51889  53.2159 247.1439 0001442 102.9931 257.1222 15.08819608 81730,6917.943,95.439,540.805,538.81,0.0
51889.0,STARLINK-3547,PAYLOAD,2023-08-15 18:46:03,15.0883897,8.95e-05,53.216,245.0624,95.436,264.6734,0.00014405,2.006e-05,0.0,0 STARLINK-3547,1 51889U 22022AP  23227.78198981  .00002006  00000-0  14405-3 0  9991,2 51889  53.2160 245.0624 0000895  95.4360 264.6734 15.08838970 81800,6917.884,95.438,540.368,539.129,0.0
51889.0,STARLINK-3547,PAYLOAD,2023-08-16 18:36:52,15.0881574,9.26e-05,53.2168,240.6022,100.3808,259.7288,0.00048048,7.362e-05,0.0,0 STARLINK-3547,1 51889U 22022AP  23228.77560462  .00007362  00000-0  48048-3 0  9998,2 51889  53.2168 240.6022 0000926 100.3808 259.7288 15.08815740 81954,6917.955,95.439,540.46,539.179,0.0
51889.0,STARLINK-3547,PAYLOAD,2023-08-17 07:19:56,15.0883974,0.0001132,53.2172,238.2222,93.4917,266.6205,6.6655e-05,7.73e-06,0.0,0 STARLINK-3547,1 51889U 22022AP  23229.30551406  .00000773  00000-0  66655-4 0  9990,2 51889  53.2172 238.2222 0001132  93.4917 266.6205 15.08839740 82039,6917.881,95.438,540.529,538.963,0.0
51889.0,STARLINK-3547,PAYLOAD,2023-08-18 16:43:02,15.08841522,0.0001038,53.2167,231.9795,95.6333,264.4778,-3.035e-06,-3.36e-06,0.0,0 STARLINK-3547,1 51889U 22022AP  23230.69655469 -.00000336  00000-0 -30350-5 0  9999,2 51889  53.2167 231.9795 0001038  95.6333 264.4778 15.08841522 82244,6917.876,95.437,540.459,539.023,0.0
51889.0,STARLINK-3547,PAYLOAD,2023-08-20 03:41:31,15.08831933,0.0001155,53.2169,225.4363,96.996,263.1163,5.4638e-05,5.82e-06,0.0,0 STARLINK-3547,1 51889U 22022AP  23232.15384216  .00000582  00000-0  54638-4 0  9996,2 51889  53.2169 225.4363 0001155  96.9960 263.1163 15.08831933 82468,6917.905,95.438,540.569,538.971,0.0
51889.0,STARLINK-3547,PAYLOAD,2023-08-20 10:03:03,15.08852648,0.0001226,53.2172,224.2463,99.7927,260.3203,-0.000123,-2.246e-05,0.0,0 STARLINK-3547,1 51889U 22022AP  23232.41879273 -.00002246  00000-0 -12300-3 0  9997,2 51889  53.2172 224.2463 0001226  99.7927 260.3203 15.08852648 82508,6917.842,95.437,540.555,538.859,0.0
51889.0,STARLINK-3547,PAYLOAD,2023-08-21 08:18:27,15.08842159,0.0001149,53.2169,220.0825,95.5944,264.5179,5.3304e-05,5.61e-06,0.0,0 STARLINK-3547,1 51889U 22022AP  23233.34615740  .00000561  00000-0  53304-4 0  9993,2 51889  53.2169 220.0825 0001149  95.5944 264.5179 15.08842159 82646,6917.874,95.437,540.534,538.944,0.0
51889.0,STARLINK-3547,PAYLOAD,2023-08-22 03:23:06,15.08837359,0.0001165,53.217,216.5132,89.3298,270.7827,4.0177e-05,3.52e-06,0.0,0 STARLINK-3547,1 51889U 22022AP  23234.14104236  .00000352  00000-0  40177-4 0  9997,2 51889  53.2170 216.5132 0001165  89.3298 270.7827 15.08837359 82768,6917.888,95.438,540.559,538.948,0.0
51889.0,STARLINK-3547,PAYLOAD,2023-08-23 08:00:02,15.08842616,0.0001182,53.2162,211.1626,91.5413,268.5715,5.7457e-05,6.27e-06,0.0,0 STARLINK-3547,1 51889U 22022AP  23235.33336026  .00000627  00000-0  57457-4 0  9997,2 51889  53.2162 211.1626 0001182  91.5413 268.5715 15.08842616 82944,6917.872,95.437,540.555,538.92,0.0
51889.0,STARLINK-3547,PAYLOAD,2023-08-24 22:09:18,15.08833313,0.0001149,53.2171,204.0287,82.2852,277.827,8.4723e-05,1.061e-05,0.0,0 STARLINK-3547,1 51889U 22022AP  23236.92312620  .00001061  00000-0  84723-4 0  9996,2 51889  53.2171 204.0287 0001149  82.2852 277.8270 15.08833313 83185,6917.901,95.438,540.561,538.971,0.0
51889.0,STARLINK-3547,PAYLOAD,2023-08-25 02:55:27,15.08836831,0.0001572,53.2174,203.1372,94.7654,265.3518,4.5747e-05,4.4e-06,0.0,0 STARLINK-3547,1 51889U 22022AP  23237.12184550  .00000440  00000-0  45747-4 0  9991,2 51889  53.2174 203.1372 0001572  94.7654 265.3518 15.08836831 83210,6917.89,95.438,540.843,538.668,0.0
